H1 CPF  1  DLR 2022 05 26 10  6462 technosat            
H2  1704205 6203    42829 2022 05 26 00 00 00 2022 06 02 00 00 00    60 1 1  0 0 0
H9
10 0 59726  14400.000000  0       2811618.365       3113453.836       5548304.549
10 0 59726  14460.000000  0       2652521.927       2767057.720       5803398.371
10 0 59726  14520.000000  0       2479128.813       2410410.541       6033764.077
10 0 59726  14580.000000  0       2292090.900       2045144.231       6238422.380
10 0 59726  14640.000000  0       2092132.140       1672920.913       6416503.903
10 0 59726  14700.000000  0       1880045.646       1295425.169       6567252.719
10 0 59726  14760.000000  0       1656690.434        914356.288       6690029.409
10 0 59726  14820.000000  0       1422987.844        531420.563       6784313.605
10 0 59726  14880.000000  0       1179917.682        148323.649       6849706.105
10 0 59726  14940.000000  0        928514.058       -233237.100       6885930.609
10 0 59726  15000.000000  0        669860.904       -611580.329       6892834.840
10 0 59726  15060.000000  0        405087.234       -985048.165       6870391.096
10 0 59726  15120.000000  0        135362.137      -1352013.539       6818696.349
10 0 59726  15180.000000  0       -138110.445      -1710887.366       6737971.801
10 0 59726  15240.000000  0       -414097.166      -2060125.511       6628561.943
10 0 59726  15300.000000  0       -691340.896      -2398235.524       6490933.065
10 0 59726  15360.000000  0       -968566.444      -2723783.079       6325671.241
10 0 59726  15420.000000  0      -1244486.355      -3035398.086       6133479.889
10 0 59726  15480.000000  0      -1517806.883      -3331780.567       5915176.957
10 0 59726  15540.000000  0      -1787234.120      -3611706.213       5671691.572
10 0 59726  15600.000000  0      -2051480.188      -3874031.598       5404060.239
10 0 59726  15660.000000  0      -2309269.518      -4117699.060       5113422.565
10 0 59726  15720.000000  0      -2559345.155      -4341741.184       4801016.445
10 0 59726  15780.000000  0      -2800475.005      -4545284.785       4468172.781
10 0 59726  15840.000000  0      -3031457.999      -4727554.484       4116309.809
10 0 59726  15900.000000  0      -3251130.172      -4887875.825       3746926.962
10 0 59726  15960.000000  0      -3458370.531      -5025677.824       3361598.355
10 0 59726  16020.000000  0      -3652106.773      -5140495.072       2961966.012
10 0 59726  16080.000000  0      -3831320.847      -5231969.349       2549732.745
10 0 59726  16140.000000  0      -3995054.296      -5299850.709       2126654.725
10 0 59726  16200.000000  0      -4142413.340      -5343998.017       1694533.793
10 0 59726  16260.000000  0      -4272573.661      -5364378.939       1255209.551
10 0 59726  16320.000000  0      -4384784.850      -5361069.394        810551.296
10 0 59726  16380.000000  0      -4478374.517      -5334252.499        362449.830
10 0 59726  16440.000000  0      -4552752.051      -5284216.978        -87190.835
10 0 59726  16500.000000  0      -4607411.962      -5211355.073       -536461.849
10 0 59726  16560.000000  0      -4641936.800      -5116159.927       -983457.895
10 0 59726  16620.000000  0      -4655999.615      -4999222.461      -1426285.519
10 0 59726  16680.000000  0      -4649365.969      -4861227.788      -1863071.341
10 0 59726  16740.000000  0      -4621895.486      -4702951.190      -2291970.131
10 0 59726  16800.000000  0      -4573542.934      -4525253.681      -2711172.672
10 0 59726  16860.000000  0      -4504358.849      -4329077.238      -3118913.399
10 0 59726  16920.000000  0      -4414489.694      -4115439.689      -3513477.800
10 0 59726  16980.000000  0      -4304177.566      -3885429.310      -3893209.505
10 0 59726  17040.000000  0      -4173759.469      -3640199.175      -4256517.089
10 0 59726  17100.000000  0      -4023666.154      -3380961.248      -4601880.547
10 0 59726  17160.000000  0      -3854420.510      -3108980.268      -4927857.394
10 0 59726  17220.000000  0      -3666635.537      -2825567.495      -5233088.371
10 0 59726  17280.000000  0      -3461011.935      -2532074.334      -5516302.752
10 0 59726  17340.000000  0      -3238335.327      -2229885.883      -5776323.252
10 0 59726  17400.000000  0      -2999473.138      -1920414.405      -6012070.553
10 0 59726  17460.000000  0      -2745371.079      -1605092.758      -6222567.408
10 0 59726  17520.000000  0      -2477049.295      -1285367.829      -6406942.293
10 0 59726  17580.000000  0      -2195598.194       -962693.999      -6564432.610
10 0 59726  17640.000000  0      -1902173.990       -638526.667      -6694387.429
10 0 59726  17700.000000  0      -1597994.006       -314315.875      -6796269.784
10 0 59726  17760.000000  0      -1284331.767          8499.932      -6869658.559
10 0 59726  17820.000000  0       -962511.847        328500.032      -6914250.058
10 0 59726  17880.000000  0       -633904.425        644287.459      -6929859.157
10 0 59726  17940.000000  0       -299919.638        954494.933      -6916419.945
10 0 59726  18000.000000  0         37998.200       1257790.510      -6873985.922
10 0 59726  18060.000000  0        378376.537       1552883.039      -6802729.950
10 0 59726  18120.000000  0        719720.814       1838527.569      -6702943.819
10 0 59726  18180.000000  0       1060520.914       2113530.510      -6575037.168
10 0 59726  18240.000000  0       1399257.590       2376754.472      -6419535.983
10 0 59726  18300.000000  0       1734409.007       2627122.940      -6237080.812
10 0 59726  18360.000000  0       2064457.475       2863624.714      -6028424.447
10 0 59726  18420.000000  0       2387896.178       3085317.945      -5794429.119
10 0 59726  18480.000000  0       2703235.899       3291333.901      -5536063.355
10 0 59726  18540.000000  0       3009011.785       3480880.494      -5254398.454
10 0 59726  18600.000000  0       3303790.166       3653245.509      -4950604.492
10 0 59726  18660.000000  0       3586175.321       3807799.442      -4625945.852
10 0 59726  18720.000000  0       3854816.156       3943997.988      -4281776.355
10 0 59726  18780.000000  0       4108412.790       4061384.165      -3919533.977
10 0 59726  18840.000000  0       4345723.022       4159590.029      -3540735.127
10 0 59726  18900.000000  0       4565568.586       4238337.976      -3146968.520
10 0 59726  18960.000000  0       4766841.147       4297441.615      -2739888.683
10 0 59726  19020.000000  0       4948508.036       4336806.214      -2321209.186
10 0 59726  19080.000000  0       5109617.800       4356428.751      -1892695.518
10 0 59726  19140.000000  0       5249305.369       4356397.474      -1456157.597
10 0 59726  19200.000000  0       5366796.802       4336891.019      -1013442.065
10 0 59726  19260.000000  0       5461413.658       4298177.096       -566424.393
10 0 59726  19320.000000  0       5532576.932       4240610.751       -117000.792
10 0 59726  19380.000000  0       5579810.577       4164632.211        332919.994
10 0 59726  19440.000000  0       5602744.567       4070764.280        781425.056
10 0 59726  19500.000000  0       5601117.399       3959609.271       1226605.738
10 0 59726  19560.000000  0       5574778.107       3831845.554       1666566.031
10 0 59726  19620.000000  0       5523687.703       3688223.741       2099430.982
10 0 59726  19680.000000  0       5447920.015       3529562.524       2523355.000
10 0 59726  19740.000000  0       5347661.991       3356744.202       2936530.027
10 0 59726  19800.000000  0       5223213.438       3170709.882       3337193.546
10 0 59726  19860.000000  0       5074986.182       2972454.400       3723636.350
10 0 59726  19920.000000  0       4903502.671       2763020.981       4094210.084
10 0 59726  19980.000000  0       4709393.924       2543495.631       4447334.320
10 0 59726  20040.000000  0       4493397.279       2315001.582       4781503.268
10 0 59726  20100.000000  0       4256353.487       2078693.567       5095292.585
10 0 59726  20160.000000  0       3999203.051       1835751.861       5387365.502
10 0 59726  20220.000000  0       3722982.272       1587376.300       5656478.483
10 0 59726  20280.000000  0       3428818.812       1334780.229       5901486.471
10 0 59726  20340.000000  0       3117926.847       1079184.465       6121347.623
10 0 59726  20400.000000  0       2791601.850        821811.342       6315127.571
10 0 59726  20460.000000  0       2451215.047        563878.882       6482003.248
10 0 59726  20520.000000  0       2098207.531        306595.013       6621266.331
10 0 59726  20580.000000  0       1734084.025         51151.879       6732326.188
10 0 59726  20640.000000  0       1360406.326       -201279.721       6814712.356
10 0 59726  20700.000000  0        978786.408       -449555.794       6868076.460
10 0 59726  20760.000000  0        590879.348       -692564.396       6892193.503
10 0 59726  20820.000000  0        198376.088       -929230.608       6886962.769
10 0 59726  20880.000000  0       -197004.060      -1158521.346       6852408.213
10 0 59726  20940.000000  0       -593520.998      -1379449.934       6788678.291
10 0 59726  21000.000000  0       -989421.599      -1591080.398       6696045.298
10 0 59726  21060.000000  0      -1382947.492      -1792531.461       6574904.141
10 0 59726  21120.000000  0      -1772342.859      -1982980.199       6425770.695
10 0 59726  21180.000000  0      -2155862.286      -2161665.404       6249279.730
10 0 59726  21240.000000  0      -2531778.631      -2327890.681       6046182.417
10 0 59726  21300.000000  0      -2898390.996      -2481027.288       5817343.363
10 0 59726  21360.000000  0      -3254032.716      -2620516.627       5563736.987
10 0 59726  21420.000000  0      -3597079.106      -2745872.292       5286443.330
10 0 59726  21480.000000  0      -3925955.026      -2856681.795       4986643.502
10 0 59726  21540.000000  0      -4239142.311      -2952607.910       4665614.663
99
